[{"OBJECT_NAME":"NSS-12","OBJECT_ID":"2009-058A","EPOCH":"2026-03-03T02:31:38.663040","MEAN_MOTION":1.00271953,"ECCENTRICITY":0.0005059,"INCLINATION":0.0082,"RA_OF_ASC_NODE":279.4528,"ARG_OF_PERICENTER":46.9426,"MEAN_ANOMALY":289.369,"EPHEMERIS_TYPE":0,"CLASSIFICATION_TYPE":"U","NORAD_CAT_ID":36032,"ELEMENT_SET_NO":999,"REV_AT_EPOCH":5985,"BSTAR":0,"MEAN_MOTION_DOT":5.6e-7,"MEAN_MOTION_DDOT":0},{"OBJECT_NAME":"THOR 6","OBJECT_ID":"2009-058B","EPOCH":"2026-03-02T23:30:38.626272","MEAN_MOTION":1.0027233,"ECCENTRICITY":0.0001892,"INCLINATION":0.0107,"RA_OF_ASC_NODE":145.5289,"ARG_OF_PERICENTER":205.4094,"MEAN_ANOMALY":161.6164,"EPHEMERIS_TYPE":0,"CLASSIFICATION_TYPE":"U","NORAD_CAT_ID":36033,"ELEMENT_SET_NO":999,"REV_AT_EPOCH":5994,"BSTAR":0,"MEAN_MOTION_DOT":-2.6e-7,"MEAN_MOTION_DDOT":0},{"OBJECT_NAME":"INTELSAT 14 (IS-14)","OBJECT_ID":"2009-064A","EPOCH":"2026-03-03T00:16:25.167360","MEAN_MOTION":1.00271619,"ECCENTRICITY":0.000257,"INCLINATION":0.0162,"RA_OF_ASC_NODE":95.2555,"ARG_OF_PERICENTER":259.5169,"MEAN_ANOMALY":125.0994,"EPHEMERIS_TYPE":0,"CLASSIFICATION_TYPE":"U","NORAD_CAT_ID":36097,"ELEMENT_SET_NO":999,"REV_AT_EPOCH":5954,"BSTAR":0,"MEAN_MOTION_DOT":-2.9e-6,"MEAN_MOTION_DDOT":0},{"OBJECT_NAME":"EUTELSAT 36B","OBJECT_ID":"2009-065A","EPOCH":"2026-03-03T02:31:38.663040","MEAN_MOTION":1.00271057,"ECCENTRICITY":0.0005883,"INCLINATION":0.2236,"RA_OF_ASC_NODE":77.4812,"ARG_OF_PERICENTER":265.5487,"MEAN_ANOMALY":266.2198,"EPHEMERIS_TYPE":0,"CLASSIFICATION_TYPE":"U","NORAD_CAT_ID":36101,"ELEMENT_SET_NO":999,"REV_AT_EPOCH":5964,"BSTAR":0,"MEAN_MOTION_DOT":9.7e-7,"MEAN_MOTION_DDOT":0},{"OBJECT_NAME":"INTELSAT 15 (IS-15)","OBJECT_ID":"2009-067A","EPOCH":"2026-03-02T14:54:25.731360","MEAN_MOTION":1.00271568,"ECCENTRICITY":0.0002371,"INCLINATION":0.0205,"RA_OF_ASC_NODE":97.2427,"ARG_OF_PERICENTER":249.6344,"MEAN_ANOMALY":122.2648,"EPHEMERIS_TYPE":0,"CLASSIFICATION_TYPE":"U","NORAD_CAT_ID":36106,"ELEMENT_SET_NO":999,"REV_AT_EPOCH":4016,"BSTAR":0,"MEAN_MOTION_DOT":-2.02e-6,"MEAN_MOTION_DDOT":0},{"OBJECT_NAME":"WGS F3 (USA 211)","OBJECT_ID":"2009-068A","EPOCH":"2026-03-03T03:01:16.042368","MEAN_MOTION":1.00961598,"ECCENTRICITY":0.0002056,"INCLINATION":0.3506,"RA_OF_ASC_NODE":86.3385,"ARG_OF_PERICENTER":307.9298,"MEAN_ANOMALY":6.3738,"EPHEMERIS_TYPE":0,"CLASSIFICATION_TYPE":"U","NORAD_CAT_ID":36108,"ELEMENT_SET_NO":999,"REV_AT_EPOCH":4552,"BSTAR":0,"MEAN_MOTION_DOT":1.06e-6,"MEAN_MOTION_DDOT":0},{"OBJECT_NAME":"DIRECTV 12","OBJECT_ID":"2009-075A","EPOCH":"2026-03-03T03:41:38.902272","MEAN_MOTION":1.00272001,"ECCENTRICITY":3.39e-5,"INCLINATION":0.0185,"RA_OF_ASC_NODE":328.1886,"ARG_OF_PERICENTER":34.441,"MEAN_ANOMALY":110.9805,"EPHEMERIS_TYPE":0,"CLASSIFICATION_TYPE":"U","NORAD_CAT_ID":36131,"ELEMENT_SET_NO":999,"REV_AT_EPOCH":4549,"BSTAR":0,"MEAN_MOTION_DOT":-1.19e-6,"MEAN_MOTION_DDOT":0},{"OBJECT_NAME":"BEIDOU-2 G1","OBJECT_ID":"2010-001A","EPOCH":"2026-03-03T04:28:30.181152","MEAN_MOTION":1.00271291,"ECCENTRICITY":0.0004796,"INCLINATION":4.045,"RA_OF_ASC_NODE":60.6861,"ARG_OF_PERICENTER":275.1757,"MEAN_ANOMALY":32.6845,"EPHEMERIS_TYPE":0,"CLASSIFICATION_TYPE":"U","NORAD_CAT_ID":36287,"ELEMENT_SET_NO":999,"REV_AT_EPOCH":5910,"BSTAR":0,"MEAN_MOTION_DOT":-2.93e-6,"MEAN_MOTION_DDOT":0},{"OBJECT_NAME":"SDO","OBJECT_ID":"2010-005A","EPOCH":"2026-03-03T01:36:56.765952","MEAN_MOTION":1.00275344,"ECCENTRICITY":3.7e-5,"INCLINATION":34.4278,"RA_OF_ASC_NODE":87.9487,"ARG_OF_PERICENTER":70.7532,"MEAN_ANOMALY":284.4475,"EPHEMERIS_TYPE":0,"CLASSIFICATION_TYPE":"U","NORAD_CAT_ID":36395,"ELEMENT_SET_NO":999,"REV_AT_EPOCH":5899,"BSTAR":0,"MEAN_MOTION_DOT":-6.9e-7,"MEAN_MOTION_DDOT":0},{"OBJECT_NAME":"INTELSAT 16 (IS-16)","OBJECT_ID":"2010-006A","EPOCH":"2026-03-03T03:25:38.777088","MEAN_MOTION":1.0026821,"ECCENTRICITY":0.0002049,"INCLINATION":0.0242,"RA_OF_ASC_NODE":133.1569,"ARG_OF_PERICENTER":220.6804,"MEAN_ANOMALY":142.3016,"EPHEMERIS_TYPE":0,"CLASSIFICATION_TYPE":"U","NORAD_CAT_ID":36397,"ELEMENT_SET_NO":999,"REV_AT_EPOCH":5859,"BSTAR":0,"MEAN_MOTION_DOT":0,"MEAN_MOTION_DDOT":0},{"OBJECT_NAME":"EWS-G2 (GOES 15)","OBJECT_ID":"2010-008A","EPOCH":"2026-03-03T02:23:49.630272","MEAN_MOTION":1.00269225,"ECCENTRICITY":0.0001668,"INCLINATION":1.0058,"RA_OF_ASC_NODE":85.1718,"ARG_OF_PERICENTER":23.7748,"MEAN_ANOMALY":151.3712,"EPHEMERIS_TYPE":0,"CLASSIFICATION_TYPE":"U","NORAD_CAT_ID":36411,"ELEMENT_SET_NO":999,"REV_AT_EPOCH":5857,"BSTAR":0,"MEAN_MOTION_DOT":6.0e-8,"MEAN_MOTION_DDOT":0},{"OBJECT_NAME":"ECHOSTAR 14","OBJECT_ID":"2010-010A","EPOCH":"2026-03-03T03:49:38.807616","MEAN_MOTION":1.0027064,"ECCENTRICITY":0.0001967,"INCLINATION":0.0239,"RA_OF_ASC_NODE":159.0325,"ARG_OF_PERICENTER":189.2286,"MEAN_ANOMALY":111.201,"EPHEMERIS_TYPE":0,"CLASSIFICATION_TYPE":"U","NORAD_CAT_ID":36499,"ELEMENT_SET_NO":999,"REV_AT_EPOCH":4549,"BSTAR":0,"MEAN_MOTION_DOT":0,"MEAN_MOTION_DDOT":0},{"OBJECT_NAME":"SES-1","OBJECT_ID":"2010-016A","EPOCH":"2026-03-03T03:41:38.902272","MEAN_MOTION":1.00272384,"ECCENTRICITY":0.0002579,"INCLINATION":0.0552,"RA_OF_ASC_NODE":291,"ARG_OF_PERICENTER":40.9602,"MEAN_ANOMALY":143.3604,"EPHEMERIS_TYPE":0,"CLASSIFICATION_TYPE":"U","NORAD_CAT_ID":36516,"ELEMENT_SET_NO":999,"REV_AT_EPOCH":5797,"BSTAR":0,"MEAN_MOTION_DOT":-1.3e-6,"MEAN_MOTION_DDOT":0},{"OBJECT_NAME":"ASTRA 3B","OBJECT_ID":"2010-021A","EPOCH":"2026-03-03T02:12:28.217664","MEAN_MOTION":1.00271092,"ECCENTRICITY":0.0003036,"INCLINATION":1.1939,"RA_OF_ASC_NODE":84.954,"ARG_OF_PERICENTER":277.9441,"MEAN_ANOMALY":214.568,"EPHEMERIS_TYPE":0,"CLASSIFICATION_TYPE":"U","NORAD_CAT_ID":36581,"ELEMENT_SET_NO":999,"REV_AT_EPOCH":5780,"BSTAR":0,"MEAN_MOTION_DOT":1.22e-6,"MEAN_MOTION_DDOT":0},{"OBJECT_NAME":"COMSATBW-2","OBJECT_ID":"2010-021B","EPOCH":"2026-03-03T03:52:11.160192","MEAN_MOTION":1.00272301,"ECCENTRICITY":0.0002603,"INCLINATION":0.0313,"RA_OF_ASC_NODE":197.8144,"ARG_OF_PERICENTER":155.2338,"MEAN_ANOMALY":239.0803,"EPHEMERIS_TYPE":0,"CLASSIFICATION_TYPE":"U","NORAD_CAT_ID":36582,"ELEMENT_SET_NO":999,"REV_AT_EPOCH":5789,"BSTAR":0,"MEAN_MOTION_DOT":7.2e-7,"MEAN_MOTION_DDOT":0},{"OBJECT_NAME":"BEIDOU-2 G3","OBJECT_ID":"2010-024A","EPOCH":"2026-03-03T00:45:39.184128","MEAN_MOTION":1.00269903,"ECCENTRICITY":0.0007762,"INCLINATION":4.2639,"RA_OF_ASC_NODE":61.9313,"ARG_OF_PERICENTER":319.4586,"MEAN_ANOMALY":230.3754,"EPHEMERIS_TYPE":0,"CLASSIFICATION_TYPE":"U","NORAD_CAT_ID":36590,"ELEMENT_SET_NO":999,"REV_AT_EPOCH":5770,"BSTAR":0,"MEAN_MOTION_DOT":-1.48e-6,"MEAN_MOTION_DDOT":0},{"OBJECT_NAME":"BADR-5","OBJECT_ID":"2010-025A","EPOCH":"2026-03-03T03:13:38.772192","MEAN_MOTION":1.00272752,"ECCENTRICITY":0.0001635,"INCLINATION":0.0654,"RA_OF_ASC_NODE":110.0961,"ARG_OF_PERICENTER":275.9861,"MEAN_ANOMALY":209.1814,"EPHEMERIS_TYPE":0,"CLASSIFICATION_TYPE":"U","NORAD_CAT_ID":36592,"ELEMENT_SET_NO":999,"REV_AT_EPOCH":5215,"BSTAR":0,"MEAN_MOTION_DOT":1.29e-6,"MEAN_MOTION_DDOT":0},{"OBJECT_NAME":"COMS 1","OBJECT_ID":"2010-032A","EPOCH":"2026-03-02T19:37:08.073984","MEAN_MOTION":1.0027253,"ECCENTRICITY":0.00011637,"INCLINATION":4.532,"RA_OF_ASC_NODE":76.8967,"ARG_OF_PERICENTER":272.6803,"MEAN_ANOMALY":233.4605,"EPHEMERIS_TYPE":0,"CLASSIFICATION_TYPE":"U","NORAD_CAT_ID":36744,"ELEMENT_SET_NO":999,"REV_AT_EPOCH":5002,"BSTAR":0,"MEAN_MOTION_DOT":-3.59e-6,"MEAN_MOTION_DDOT":0},{"OBJECT_NAME":"ARABSAT-5A","OBJECT_ID":"2010-032B","EPOCH":"2026-03-02T12:32:55.020192","MEAN_MOTION":1.00269871,"ECCENTRICITY":0.0002726,"INCLINATION":0.0677,"RA_OF_ASC_NODE":49.8494,"ARG_OF_PERICENTER":316.5314,"MEAN_ANOMALY":12.6356,"EPHEMERIS_TYPE":0,"CLASSIFICATION_TYPE":"U","NORAD_CAT_ID":36745,"ELEMENT_SET_NO":999,"REV_AT_EPOCH":5757,"BSTAR":0,"MEAN_MOTION_DOT":1.36e-6,"MEAN_MOTION_DDOT":0},{"OBJECT_NAME":"ECHOSTAR 15","OBJECT_ID":"2010-034A","EPOCH":"2026-03-03T03:14:29.774112","MEAN_MOTION":1.0027042,"ECCENTRICITY":0.0002249,"INCLINATION":0.0545,"RA_OF_ASC_NODE":279.006,"ARG_OF_PERICENTER":45.012,"MEAN_ANOMALY":126.6942,"EPHEMERIS_TYPE":0,"CLASSIFICATION_TYPE":"U","NORAD_CAT_ID":36792,"ELEMENT_SET_NO":999,"REV_AT_EPOCH":5725,"BSTAR":0,"MEAN_MOTION_DOT":-1.6e-7,"MEAN_MOTION_DDOT":0},{"OBJECT_NAME":"BEIDOU-2 IGSO-1","OBJECT_ID":"2010-036A","EPOCH":"2026-03-02T01:43:31.988064","MEAN_MOTION":1.00252677,"ECCENTRICITY":0.00539654,"INCLINATION":54.2922,"RA_OF_ASC_NODE":163.9315,"ARG_OF_PERICENTER":219.0406,"MEAN_ANOMALY":268.0169,"EPHEMERIS_TYPE":0,"CLASSIFICATION_TYPE":"U","NORAD_CAT_ID":36828,"ELEMENT_SET_NO":999,"REV_AT_EPOCH":5702,"BSTAR":0,"MEAN_MOTION_DOT":-1.63e-6,"MEAN_MOTION_DDOT":0},{"OBJECT_NAME":"NILESAT 201","OBJECT_ID":"2010-037A","EPOCH":"2026-03-03T01:23:38.866272","MEAN_MOTION":1.00272348,"ECCENTRICITY":0.0003025,"INCLINATION":0.0201,"RA_OF_ASC_NODE":185.7729,"ARG_OF_PERICENTER":162.5666,"MEAN_ANOMALY":186.3604,"EPHEMERIS_TYPE":0,"CLASSIFICATION_TYPE":"U","NORAD_CAT_ID":36830,"ELEMENT_SET_NO":999,"REV_AT_EPOCH":5731,"BSTAR":0,"MEAN_MOTION_DOT":-7.4e-7,"MEAN_MOTION_DDOT":0},{"OBJECT_NAME":"RASCOM-QAF 1R","OBJECT_ID":"2010-037B","EPOCH":"2026-03-03T02:06:28.791936","MEAN_MOTION":1.00270847,"ECCENTRICITY":0.0006575,"INCLINATION":0.0264,"RA_OF_ASC_NODE":125.4785,"ARG_OF_PERICENTER":210.1871,"MEAN_ANOMALY":219.6952,"EPHEMERIS_TYPE":0,"CLASSIFICATION_TYPE":"U","NORAD_CAT_ID":36831,"ELEMENT_SET_NO":999,"REV_AT_EPOCH":5724,"BSTAR":0,"MEAN_MOTION_DOT":2.0e-8,"MEAN_MOTION_DDOT":0},{"OBJECT_NAME":"AEHF-1 (USA 214)","OBJECT_ID":"2010-039A","EPOCH":"2026-03-03T02:14:20.539392","MEAN_MOTION":1.00277913,"ECCENTRICITY":0.0004438,"INCLINATION":7.9599,"RA_OF_ASC_NODE":69.429,"ARG_OF_PERICENTER":261.0254,"MEAN_ANOMALY":254.0416,"EPHEMERIS_TYPE":0,"CLASSIFICATION_TYPE":"U","NORAD_CAT_ID":36868,"ELEMENT_SET_NO":999,"REV_AT_EPOCH":5259,"BSTAR":0,"MEAN_MOTION_DOT":1.36e-6,"MEAN_MOTION_DDOT":0}]
